OBJECT_NAME,OBJECT_ID,EPOCH,MEAN_MOTION,ECCENTRICITY,INCLINATION,RA_OF_ASC_NODE,ARG_OF_PERICENTER,MEAN_ANOMALY,EPHEMERIS_TYPE,CLASSIFICATION_TYPE,NORAD_CAT_ID,ELEMENT_SET_NO,REV_AT_EPOCH,BSTAR,MEAN_MOTION_DOT,MEAN_MOTION_DDOT
STARLINK-32710,2025-008T,2025-05-19T16:22:09.504480,15.27574421,.0001062,43.0009,137.9773,268.4688,91.6042,0,U,62604,999,2057,.64157E-6,-.244E-5,0
STARLINK-32742,2025-008U,2025-05-19T00:46:08.793408,15.27566741,.0000413,42.9975,141.6994,308.9139,51.1675,0,U,62605,999,2055,-.10475E-4,-.55E-5,0
STARLINK-32783,2025-008V,2025-05-19T10:37:01.264800,15.27550018,.0001597,43.0035,139.6273,280.3794,79.6877,0,U,62606,999,2056,-.56668E-4,-.182E-4,0
STARLINK-32784,2025-008W,2025-05-19T08:46:10.996320,15.27569653,.0001104,43.0001,139.9042,271.9826,88.0899,0,U,62607,999,2061,-.24128E-4,-.926E-5,0
BUZZER-1,2025-009A,2025-05-19T11:21:17.495424,15.18233804,.0006366,97.4239,219.8106,271.2898,88.7607,0,U,62609,999,1889,.17328E-3,.3481E-4,0
EDISON-1,2025-009B,2025-05-19T04:44:20.832576,15.20631810,.0005741,97.4313,219.8400,247.1273,112.9357,0,U,62610,999,1887,.46269E-3,.10091E-3,0
BALKAN-1,2025-009C,2025-05-19T11:43:36.239232,15.18295208,.0006217,97.4245,219.7983,269.0377,91.0144,0,U,62611,999,1889,.37267E-3,.758E-4,0
GESAT GEN1,2025-009D,2025-05-19T04:08:56.106240,15.21044587,.0001351,97.4315,220.0265,121.8544,238.2823,0,U,62612,999,1888,.35301E-3,.7771E-4,0
FLOCK 4G-8,2025-009E,2025-05-19T05:14:21.038784,15.20518328,.0003486,97.4313,219.9670,246.2211,113.8659,0,U,62613,999,1888,.32623E-3,.7067E-4,0
2025-009F,2025-009F,2025-05-19T11:43:36.024960,15.26334453,.0004993,97.4255,220.5890,253.4062,106.6628,0,U,62614,999,1894,.10419E-2,.27068E-3,0
2025-009G,2025-009G,2025-05-19T04:17:42.397152,15.19172955,.0005304,97.4257,219.6255,268.8039,91.2588,0,U,62615,999,1885,.35631E-3,.743E-4,0
INNOCUBE (TUSAT-31),2025-009H,2025-05-19T11:56:25.139616,15.19436031,.0005265,97.4221,219.9054,273.8622,86.2010,0,U,62616,999,1890,.31729E-3,.6659E-4,0
SCOT-1 (SCOT),2025-009J,2025-05-19T11:01:17.008896,15.23611429,.000495,97.4197,220.2356,266.5790,93.4881,0,U,62617,999,1892,.75363E-3,.18007E-3,0
2025-009K,2025-009K,2025-05-19T12:00:27.369792,15.24267221,.0004219,97.4260,220.4248,275.3345,84.7411,0,U,62618,999,1893,.76418E-3,.18619E-3,0
IRIS-F3,2025-009L,2025-05-19T04:09:56.754720,15.19130595,.0005636,97.4350,219.7817,259.1928,100.8672,0,U,62619,999,1886,.6458E-3,.13516E-3,0
2025-009M,2025-009M,2025-05-19T11:58:50.860128,15.24265606,.0004419,97.4274,220.4538,249.0286,111.0479,0,U,62620,999,1893,.75759E-3,.18457E-3,0
FLOCK 4G-13,2025-009N,2025-05-19T11:29:21.607584,15.19841807,.0004782,97.4303,220.0579,263.9426,96.1264,0,U,62621,999,1890,.39596E-3,.8427E-4,0
FLOCK 4G-9,2025-009P,2025-05-19T11:16:46.485408,15.19960862,.0004135,97.4263,220.0118,261.4451,98.6316,0,U,62622,999,1890,.36348E-3,.7756E-4,0
OTTER,2025-009Q,2025-05-19T04:25:26.938848,15.20445523,.0004336,97.4330,219.8835,249.3254,110.7517,0,U,62623,999,1887,.31401E-3,.6785E-4,0
FLOCK 4G-7,2025-009R,2025-05-19T04:02:43.779264,15.20248063,.0001584,97.4246,219.7696,249.4922,110.6144,0,U,62624,999,1887,.41811E-3,.9007E-4,0
FLOCK 4G-12,2025-009S,2025-05-19T05:22:32.689344,15.20361033,.0003196,97.4319,219.9715,244.4127,115.6778,0,U,62625,999,1888,.35329E-3,.7624E-4,0
2025-009T,2025-009T,2025-05-19T11:57:10.838304,15.20050418,.0002321,97.4284,220.1510,226.0678,134.0365,0,U,62626,999,1892,.24624E-3,.5244E-4,0
RAY 1.0,2025-009U,2025-05-19T07:19:56.066592,15.17410587,.0008791,97.4308,219.8418,201.0214,159.0660,0,U,62627,999,1888,.20684E-3,.4072E-4,0
ION SCV-016,2025-009V,2025-05-19T11:11:46.444992,14.39692247,.0629395,97.4865,217.9039,255.4537,97.6080,0,U,62628,999,1871,.3489E-3,.14461E-3,0
FLOCK 4G-11,2025-009W,2025-05-19T11:19:06.842208,15.20613419,.0001745,97.4239,220.1186,243.7408,116.3648,0,U,62629,999,1892,.32412E-3,.704E-4,0
ION SCV-014,2025-009X,2025-05-19T11:16:10.119648,15.03435798,.0006655,97.5223,218.9933,56.7663,303.4200,0,U,62630,999,1879,.13409E-3,.1766E-4,0
PELICAN-2,2025-009Y,2025-05-19T05:21:57.174624,15.32495508,.0009718,97.4296,220.5289,227.0066,133.0362,0,U,62631,999,1892,.12112E-3,.3725E-4,0
SIGI,2025-009Z,2025-05-19T14:01:50.747232,15.19598372,.000224,97.4303,220.2207,230.0281,130.0758,0,U,62632,999,1893,.23445E-3,.4924E-4,0
FLOCK 4G-26,2025-009AA,2025-05-19T11:41:34.508544,15.20448701,.0002813,97.4324,220.2391,227.2693,132.8306,0,U,62633,999,1892,.36144E-3,.7821E-4,0
FLOCK 4G-28,2025-009AB,2025-05-19T04:55:15.942432,15.20717204,.0003043,97.4325,220.0007,233.1577,126.9380,0,U,62634,999,1888,.35428E-3,.7726E-4,0
GARAI-A,2025-009AC,2025-05-19T13:51:32.245920,15.21092790,.0001744,97.4296,220.3699,222.2622,137.8480,0,U,62635,999,1894,.38623E-3,.8522E-4,0
