STARLINK-32710          
1 62604U 25008T   25139.68205445 -.00000244  00000+0  64157-6 0  9996
2 62604  43.0009 137.9773 0001062 268.4688  91.6042 15.27574421 20578
STARLINK-32742          
1 62605U 25008U   25139.03204622 -.00000550  00000+0 -10475-4 0  9995
2 62605  42.9975 141.6994 0000413 308.9139  51.1675 15.27566741 20553
STARLINK-32783          
1 62606U 25008V   25139.44237575 -.00001820  00000+0 -56668-4 0  9999
2 62606  43.0035 139.6273 0001597 280.3794  79.6877 15.27550018 20564
STARLINK-32784          
1 62607U 25008W   25139.36540505 -.00000926  00000+0 -24128-4 0  9993
2 62607  43.0001 139.9042 0001104 271.9826  88.0899 15.27569653 20610
BUZZER-1                
1 62609U 25009A   25139.47311916  .00003481  00000+0  17328-3 0  9990
2 62609  97.4239 219.8106 0006366 271.2898  88.7607 15.18233804 18891
EDISON-1                
1 62610U 25009B   25139.19746334  .00010091  00000+0  46269-3 0  9998
2 62610  97.4313 219.8400 0005741 247.1273 112.9357 15.20631810 18870
BALKAN-1                
1 62611U 25009C   25139.48861388  .00007580  00000+0  37267-3 0  9995
2 62611  97.4245 219.7983 0006217 269.0377  91.0144 15.18295208 18894
GESAT GEN1              
1 62612U 25009D   25139.17287160  .00007771  00000+0  35301-3 0  9991
2 62612  97.4315 220.0265 0001351 121.8544 238.2823 15.21044587 18880
FLOCK 4G-8              
1 62613U 25009E   25139.21829906  .00007067  00000+0  32623-3 0  9999
2 62613  97.4313 219.9670 0003486 246.2211 113.8659 15.20518328 18883
2025-009F               
1 62614U 25009F   25139.48861140  .00027068  00000+0  10419-2 0  9996
2 62614  97.4255 220.5890 0004993 253.4062 106.6628 15.26334453 18943
2025-009G               
1 62615U 25009G   25139.17896293  .00007430  00000+0  35631-3 0  9995
2 62615  97.4257 219.6255 0005304 268.8039  91.2588 15.19172955 18854
INNOCUBE (TUSAT-31)     
1 62616U 25009H   25139.49751319  .00006659  00000+0  31729-3 0  9996
2 62616  97.4221 219.9054 0005265 273.8622  86.2010 15.19436031 18904
SCOT-1 (SCOT)           
1 62617U 25009J   25139.45922464  .00018007  00000+0  75363-3 0  9996
2 62617  97.4197 220.2356 0004950 266.5790  93.4881 15.23611429 18921
2025-009K               
1 62618U 25009K   25139.50031678  .00018619  00000+0  76418-3 0  9992
2 62618  97.4260 220.4248 0004219 275.3345  84.7411 15.24267221 18938
IRIS-F3                 
1 62619U 25009L   25139.17357355  .00013516  00000+0  64580-3 0  9997
2 62619  97.4350 219.7817 0005636 259.1928 100.8672 15.19130595 18861
2025-009M               
1 62620U 25009M   25139.49919977  .00018457  00000+0  75759-3 0  9997
2 62620  97.4274 220.4538 0004419 249.0286 111.0479 15.24265606 18935
FLOCK 4G-13             
1 62621U 25009N   25139.47872231  .00008427  00000+0  39596-3 0  9992
2 62621  97.4303 220.0579 0004782 263.9426  96.1264 15.19841807 18903
FLOCK 4G-9              
1 62622U 25009P   25139.46998247  .00007756  00000+0  36348-3 0  9994
2 62622  97.4263 220.0118 0004135 261.4451  98.6316 15.19960862 18909
OTTER                   
1 62623U 25009Q   25139.18433957  .00006785  00000+0  31401-3 0  9992
2 62623  97.4330 219.8835 0004336 249.3254 110.7517 15.20445523 18875
FLOCK 4G-7              
1 62624U 25009R   25139.16856226  .00009007  00000+0  41811-3 0  9995
2 62624  97.4246 219.7696 0001584 249.4922 110.6144 15.20248063 18876
FLOCK 4G-12             
1 62625U 25009S   25139.22398946  .00007624  00000+0  35329-3 0  9993
2 62625  97.4319 219.9715 0003196 244.4127 115.6778 15.20361033 18887
2025-009T               
1 62626U 25009T   25139.49804211  .00005244  00000+0  24624-3 0  9992
2 62626  97.4284 220.1510 0002321 226.0678 134.0365 15.20050418 18926
RAY 1.0                 
1 62627U 25009U   25139.30551003  .00004072  00000+0  20684-3 0  9991
2 62627  97.4308 219.8418 0008791 201.0214 159.0660 15.17410587 18885
ION SCV-016             
1 62628U 25009V   25139.46650978  .00014461  00000+0  34890-3 0  9997
2 62628  97.4865 217.9039 0629395 255.4537  97.6080 14.39692247 18715
FLOCK 4G-11             
1 62629U 25009W   25139.47160697  .00007040  00000+0  32412-3 0  9996
2 62629  97.4239 220.1186 0001745 243.7408 116.3648 15.20613419 18927
ION SCV-014             
1 62630U 25009X   25139.46956157  .00001766  00000+0  13409-3 0  9995
2 62630  97.5223 218.9933 0006655  56.7663 303.4200 15.03435798 18799
PELICAN-2               
1 62631U 25009Y   25139.22357841  .00003725  00000+0  12112-3 0  9992
2 62631  97.4296 220.5289 0009718 227.0066 133.0362 15.32495508 18923
SIGI                    
1 62632U 25009Z   25139.58461513  .00004924  00000+0  23445-3 0  9997
2 62632  97.4303 220.2207 0002240 230.0281 130.0758 15.19598372 18931
FLOCK 4G-26             
1 62633U 25009AA  25139.48720496  .00007821  00000+0  36144-3 0  9994
2 62633  97.4324 220.2391 0002813 227.2693 132.8306 15.20448701 18920
FLOCK 4G-28             
1 62634U 25009AB  25139.20504563  .00007726  00000+0  35428-3 0  9998
2 62634  97.4325 220.0007 0003043 233.1577 126.9380 15.20717204 18885
GARAI-A                 
1 62635U 25009AC  25139.57745655  .00008522  00000+0  38623-3 0  9993
2 62635  97.4296 220.3699 0001744 222.2622 137.8480 15.21092790 18945
